[{"OBJECT_NAME":"DAMPE","OBJECT_ID":"2015-078A","EPOCH":"2026-03-09T23:55:00.527232","MEAN_MOTION":15.30502084,"ECCENTRICITY":0.00138005,"INCLINATION":97.4588,"RA_OF_ASC_NODE":73.9866,"ARG_OF_PERICENTER":70.6942,"MEAN_ANOMALY":289.579,"EPHEMERIS_TYPE":0,"CLASSIFICATION_TYPE":"U","NORAD_CAT_ID":41173,"ELEMENT_SET_NO":999,"REV_AT_EPOCH":56937,"BSTAR":9.1158173e-5,"MEAN_MOTION_DOT":2.617e-5,"MEAN_MOTION_DDOT":0},{"OBJECT_NAME":"STARLINK-34118","OBJECT_ID":"2025-095L","EPOCH":"2026-03-08T08:52:22.283040","MEAN_MOTION":15.27531579,"ECCENTRICITY":0.00012975,"INCLINATION":43.001,"RA_OF_ASC_NODE":183.8764,"ARG_OF_PERICENTER":293.2376,"MEAN_ANOMALY":66.8339,"EPHEMERIS_TYPE":0,"CLASSIFICATION_TYPE":"U","NORAD_CAT_ID":63900,"ELEMENT_SET_NO":999,"REV_AT_EPOCH":4758,"BSTAR":0.0010711784,"MEAN_MOTION_DOT":0.00029288,"MEAN_MOTION_DDOT":0}]
